37192,GLOBALSTAR M075,2010,114.08,700.0,+,52.0,Active,1,LEO,Kazakhstan,Globalstar,Commercial,Communications,Soyuz,1 37192U 10054E   24232.18031269 -.00000086  00000+0  97643-4 0  9992,2 37192  51.9968  21.0819 0000739  88.4537  83.0740 12.62263032637866,12.62263032,7.39e-05,LEO
37193,GLOBALSTAR M073,2010,114.08,700.0,+,52.01,Active,1,LEO,Kazakhstan,Globalstar,Commercial,Communications,Soyuz,1 37193U 10054F   24232.46240231 -.00000057  00000+0  26182-3 0  9992,2 37193  52.0061 293.8159 0000556 103.6184 269.7791 12.62268338639735,12.62268338,5.56e-05,LEO
37739,GLOBALSTAR M083,2011,114.08,700.0,+,51.98,Active,1,LEO,Kazakhstan,Globalstar,Commercial,Communications,Soyuz,1 37739U 11033A   24232.33643427 -.00000098  00000+0  33696-4 0  9990,2 37739  51.9836 243.3399 0000057  47.6611  54.3793 12.62263545608734,12.62263545,5.7e-06,LEO
37740,GLOBALSTAR M088,2011,114.08,700.0,+,51.97,Active,1,LEO,Kazakhstan,Globalstar,Commercial,Communications,Soyuz,1 37740U 11033B   24232.48367449 -.00000091  00000+0  69587-4 0  9996,2 37740  51.9725 148.6347 0000495  30.2657 141.7294 12.62266306604299,12.62266306,4.95e-05,LEO
37741,GLOBALSTAR M091,2011,114.08,700.0,+,52.0,Active,1,LEO,Kazakhstan,Globalstar,Commercial,Communications,Soyuz,1 37741U 11033C   24232.41787859 -.00000071  00000+0  18072-3 0  9991,2 37741  51.9990 111.8534 0000523  33.7416 137.3557 12.62265945605075,12.62265945,5.23e-05,LEO
37742,GLOBALSTAR M085,2011,114.08,700.0,+,51.99,Active,1,LEO,Kazakhstan,Globalstar,Commercial,Communications,Soyuz,1 37742U 11033D   24232.24613064 -.00000088  00000+0  89960-4 0  9992,2 37742  51.9871  63.6790 0000619  63.9036 107.7543 12.62264636605567,12.62264636,6.19e-05,LEO
37743,GLOBALSTAR M081,2011,114.08,700.0,+,52.0,Active,1,LEO,Kazakhstan,Globalstar,Commercial,Communications,Soyuz,1 37743U 11033E   24232.55565307 -.00000076  00000+0  15540-3 0  9992,2 37743  51.9960  65.3377 0000832  54.1715 324.3326 12.62268234605755,12.62268234,8.32e-05,LEO
37744,GLOBALSTAR M089,2011,114.08,700.0,+,51.99,Active,1,LEO,Kazakhstan,Globalstar,Commercial,Communications,Soyuz,1 37744U 11033F   24231.57909514 -.00000096  00000+0  42112-4 0  9994,2 37744  51.9948  22.5980 0001119  87.5151 349.6413 12.62267169606473,12.62267169,0.0001119,LEO
